{
  "type": "FeatureCollection",
  "features": [
    {
      "type": "Feature",
      "properties": {
        "norad_id": 24946,
        "name": "IRIDIUM 33",
        "group": "iridium-33-debris",
        "lat": -48.00095238685255,
        "lon": -106.96862673407473,
        "alt_km": 777.3319813091257,
        "timestamp": "2025-12-10T20:49:52.937617+00:00",
        "meta_object_name": "IRIDIUM 33",
        "meta_object_id": "1997-051C",
        "meta_epoch": "2025-12-10T11:24:15.672096",
        "meta_mean_motion": 14.35034929,
        "meta_eccentricity": 0.00067734,
        "meta_inclination": 86.387,
        "meta_ra_of_asc_node": 69.1722,
        "meta_arg_of_pericenter": 208.6208,
        "meta_mean_anomaly": 151.4617,
        "meta_ephemeris_type": 0,
        "meta_classification_type": "U",
        "meta_norad_cat_id": 24946,
        "meta_element_set_no": 999,
        "meta_rev_at_epoch": 47802,
        "meta_bstar": 0.00019569961,
        "meta_mean_motion_dot": 5.77e-06,
        "meta_mean_motion_ddot": 0,
        "tle_line1": "1 24946U 97051C   25344.47518139  .00000577  00000+0  19570-3 0  9996",
        "tle_line2": "2 24946  86.3870  69.1722 0006773 208.6208 151.4617 14.35034929478021"
      },
      "geometry": {
        "type": "Point",
        "coordinates": [
          -106.96862673407473,
          -48.00095238685255
        ]
      }
    },
    {
      "type": "Feature",
      "properties": {
        "norad_id": 33773,
        "name": "IRIDIUM 33 DEB",
        "group": "iridium-33-debris",
        "lat": 50.131351956964366,
        "lon": -122.938673757369,
        "alt_km": 735.1787316335221,
        "timestamp": "2025-12-10T20:49:52.937642+00:00",
        "meta_object_name": "IRIDIUM 33 DEB",
        "meta_object_id": "1997-051L",
        "meta_epoch": "2025-12-10T11:54:46.043136",
        "meta_mean_motion": 14.43249294,
        "meta_eccentricity": 0.00122729,
        "meta_inclination": 86.4013,
        "meta_ra_of_asc_node": 61.5401,
        "meta_arg_of_pericenter": 153.0085,
        "meta_mean_anomaly": 207.1757,
        "meta_ephemeris_type": 0,
        "meta_classification_type": "U",
        "meta_norad_cat_id": 33773,
        "meta_element_set_no": 999,
        "meta_rev_at_epoch": 88315,
        "meta_bstar": 0.00048914009,
        "meta_mean_motion_dot": 1.666e-05,
        "meta_mean_motion_ddot": 0,
        "tle_line1": "1 33773U 97051L   25344.49636624  .00001666  00000+0  48914-3 0  9990",
        "tle_line2": "2 33773  86.4013  61.5401 0012272 153.0085 207.1757 14.43249294883156"
      },
      "geometry": {
        "type": "Point",
        "coordinates": [
          -122.938673757369,
          50.131351956964366
        ]
      }
    },
    {
      "type": "Feature",
      "properties": {
        "norad_id": 33775,
        "name": "IRIDIUM 33 DEB",
        "group": "iridium-33-debris",
        "lat": -45.37225390468802,
        "lon": -125.95368170109853,
        "alt_km": 756.2712154924484,
        "timestamp": "2025-12-10T20:49:52.937656+00:00",
        "meta_object_name": "IRIDIUM 33 DEB",
        "meta_object_id": "1997-051N",
        "meta_epoch": "2025-12-10T11:30:55.922688",
        "meta_mean_motion": 14.41461021,
        "meta_eccentricity": 0.00140482,
        "meta_inclination": 86.3639,
        "meta_ra_of_asc_node": 50.5184,
        "meta_arg_of_pericenter": 161.5462,
        "meta_mean_anomaly": 210.7248,
        "meta_ephemeris_type": 0,
        "meta_classification_type": "U",
        "meta_norad_cat_id": 33775,
        "meta_element_set_no": 999,
        "meta_rev_at_epoch": 88108,
        "meta_bstar": 0.00051864419,
        "meta_mean_motion_dot": 1.703e-05,
        "meta_mean_motion_ddot": 0,
        "tle_line1": "1 33775U 97051N   25344.47981392  .00001703  00000+0  51864-3 0  9995",
        "tle_line2": "2 33775  86.3639  50.5184 0014048 161.5462 210.7248 14.41461021881080"
      },
      "geometry": {
        "type": "Point",
        "coordinates": [
          -125.95368170109853,
          -45.37225390468802
        ]
      }
    },
    {
      "type": "Feature",
      "properties": {
        "norad_id": 33776,
        "name": "IRIDIUM 33 DEB",
        "group": "iridium-33-debris",
        "lat": 63.184581526838535,
        "lon": -105.5851014923979,
        "alt_km": 756.5197753425809,
        "timestamp": "2025-12-10T20:49:52.937668+00:00",
        "meta_object_name": "IRIDIUM 33 DEB",
        "meta_object_id": "1997-051P",
        "meta_epoch": "2025-12-10T13:39:27.777600",
        "meta_mean_motion": 14.38229346,
        "meta_eccentricity": 0.00140925,
        "meta_inclination": 86.4038,
        "meta_ra_of_asc_node": 81.6874,
        "meta_arg_of_pericenter": 197.5337,
        "meta_mean_anomaly": 172.5443,
        "meta_ephemeris_type": 0,
        "meta_classification_type": "U",
        "meta_norad_cat_id": 33776,
        "meta_element_set_no": 999,
        "meta_rev_at_epoch": 88051,
        "meta_bstar": 0.0005085042,
        "meta_mean_motion_dot": 1.565e-05,
        "meta_mean_motion_ddot": 0,
        "tle_line1": "1 33776U 97051P   25344.56907150  .00001565  00000+0  50850-3 0  9996",
        "tle_line2": "2 33776  86.4038  81.6874 0014092 197.5337 172.5443 14.38229346880512"
      },
      "geometry": {
        "type": "Point",
        "coordinates": [
          -105.5851014923979,
          63.184581526838535
        ]
      }
    },
    {
      "type": "Feature",
      "properties": {
        "norad_id": 33777,
        "name": "IRIDIUM 33 DEB",
        "group": "iridium-33-debris",
        "lat": 32.37730963618495,
        "lon": -146.2840321437082,
        "alt_km": 706.8886224614807,
        "timestamp": "2025-12-10T20:49:52.937680+00:00",
        "meta_object_name": "IRIDIUM 33 DEB",
        "meta_object_id": "1997-051Q",
        "meta_epoch": "2025-12-10T13:33:22.021344",
        "meta_mean_motion": 14.55588213,
        "meta_eccentricity": 0.00050754,
        "meta_inclination": 86.3784,
        "meta_ra_of_asc_node": 36.1493,
        "meta_arg_of_pericenter": 259.0023,
        "meta_mean_anomaly": 101.0614,
        "meta_ephemeris_type": 0,
        "meta_classification_type": "U",
        "meta_norad_cat_id": 33777,
        "meta_element_set_no": 999,
        "meta_rev_at_epoch": 88502,
        "meta_bstar": 0.0013602891,
        "meta_mean_motion_dot": 5.952e-05,
        "meta_mean_motion_ddot": 0,
        "tle_line1": "1 33777U 97051Q   25344.56483821  .00005952  00000+0  13603-2 0  9999",
        "tle_line2": "2 33777  86.3784  36.1493 0005075 259.0023 101.0614 14.55588213885027"
      },
      "geometry": {
        "type": "Point",
        "coordinates": [
          -146.2840321437082,
          32.37730963618495
        ]
      }
    },
    {
      "type": "Feature",
      "properties": {
        "norad_id": 33850,
        "name": "IRIDIUM 33 DEB",
        "group": "iridium-33-debris",
        "lat": -21.74053239378518,
        "lon": -147.55346682865357,
        "alt_km": 749.8661410619425,
        "timestamp": "2025-12-10T20:49:52.937692+00:00",
        "meta_object_name": "IRIDIUM 33 DEB",
        "meta_object_id": "1997-051T",
        "meta_epoch": "2025-12-10T03:29:36.109248",
        "meta_mean_motion": 14.42137967,
        "meta_eccentricity": 0.00119531,
        "meta_inclination": 86.3419,
        "meta_ra_of_asc_node": 31.2952,
        "meta_arg_of_pericenter": 168.989,
        "meta_mean_anomaly": 244.4174,
        "meta_ephemeris_type": 0,
        "meta_classification_type": "U",
        "meta_norad_cat_id": 33850,
        "meta_element_set_no": 999,
        "meta_rev_at_epoch": 88115,
        "meta_bstar": 0.00047039968,
        "meta_mean_motion_dot": 1.567e-05,
        "meta_mean_motion_ddot": 0,
        "tle_line1": "1 33850U 97051T   25344.14555682  .00001567  00000+0  47040-3 0  9991",
        "tle_line2": "2 33850  86.3419  31.2952 0011953 168.9890 244.4174 14.42137967881157"
      },
      "geometry": {
        "type": "Point",
        "coordinates": [
          -147.55346682865357,
          -21.74053239378518
        ]
      }
    },
    {
      "type": "Feature",
      "properties": {
        "norad_id": 33853,
        "name": "IRIDIUM 33 DEB",
        "group": "iridium-33-debris",
        "lat": 27.63017366646557,
        "lon": 168.53318649526258,
        "alt_km": 891.4277019716337,
        "timestamp": "2025-12-10T20:49:52.937704+00:00",
        "meta_object_name": "IRIDIUM 33 DEB",
        "meta_object_id": "1997-051W",
        "meta_epoch": "2025-12-09T12:13:24.016800",
        "meta_mean_motion": 13.99031995,
        "meta_eccentricity": 0.02069783,
        "meta_inclination": 85.9998,
        "meta_ra_of_asc_node": 351.2277,
        "meta_arg_of_pericenter": 245.8173,
        "meta_mean_anomaly": 269.932,
        "meta_ephemeris_type": 0,
        "meta_classification_type": "U",
        "meta_norad_cat_id": 33853,
        "meta_element_set_no": 999,
        "meta_rev_at_epoch": 85300,
        "meta_bstar": 0.0029960339,
        "meta_mean_motion_dot": 5.22e-05,
        "meta_mean_motion_ddot": 0,
        "tle_line1": "1 33853U 97051W   25343.50930575  .00005220  00000+0  29960-2 0  9991",
        "tle_line2": "2 33853  85.9998 351.2277 0206978 245.8173 269.9320 13.99031995853007"
      },
      "geometry": {
        "type": "Point",
        "coordinates": [
          168.53318649526258,
          27.63017366646557
        ]
      }
    }
  ]
}